ONEWEB-0612             
1 54675U 22166AK  23364.24041165 -.00000013  00000+0 -62689-4 0  9995
2 54675  87.9234  63.1163 0001577  90.2135 269.9180 13.21823865 52542
ONEWEB-0655             
1 54677U 22166AM  23364.57315454  .00000126  00000+0  27258-3 0  9993
2 54677  87.9240  63.0741 0001346 102.4352 257.6933 13.21828201 52597
ONEWEB-0659             
1 54678U 22166AN  23364.59050307  .00000048  00000+0  85462-4 0  9994
2 54678  87.9232  63.0810 0002120 100.9329 259.2044 13.21828545 52686
ONEWEB-0685             
1 54679U 22166AP  23364.59208485  .00000069  00000+0  13510-3 0  9994
2 54679  87.9243  63.0661 0001013  94.5189 265.6061 13.21826424 52577
ONEWEB-0712             
1 54680U 22166AQ  23364.59118209  .00000057  00000+0  11564-3 0  9994
2 54680  87.9053  47.8345 0002082 108.1285 252.0073 13.16598600 53685
ONEWEB-0714             
1 54681U 22166AR  23364.59838651  .00000077  00000+0  15474-3 0  9991
2 54681  87.9236  63.0497 0001456  99.4722 260.6576 13.21826326 52697
ONEWEB-0532             
1 55140U 23004A   23364.56879930  .00000050  00000+0  94478-4 0  9999
2 55140  87.9201 184.7268 0001946  66.0194 294.1141 13.17649921 49116
